TIBA-1                  
1 44800U 19080A   26161.27563301  .00000173  00000+0  00000+0 0  9996
2 44800   0.0511 351.4900 0002096 111.8791 290.0371  1.00275021 23984
INMARSAT GX5            
1 44801U 19080B   26162.55397940  .00000092  00000+0  00000+0 0  9993
2 44801   0.0414  20.3553 0002266  58.2485  31.7588  1.00271082  6733
JCSAT-18 (KACIFIC 1)    
1 44868U 19091A   26161.79741338  .00000000  00000+0  00000+0 0  9996
2 44868   0.0107 325.8885 0000590 259.3585 110.9752  1.00268324 23949
ELEKTRO-L 3             
1 44903U 19095A   26162.63821287 -.00000080  00000+0  00000+0 0  9995
2 44903   0.2412  81.4229 0001222 354.7820 129.4878  1.00271958 23651
SHIJIAN-20 (SJ-20)      
1 44910U 19097A   26161.41999082  .00000151  00000+0  00000+0 0  9997
2 44910   4.9007  75.1442 0013823  53.8399 325.7999  1.00275543 23632
TJS-5                   
1 44978U 20002A   26160.43444720 -.00000325  00000+0  00000+0 0  9998
2 44978   0.0306 290.7235 0007543 116.5233 114.4723  1.00273083 23631
GSAT-30                 
1 45026U 20005A   26160.14438434 -.00000147  00000+0  00000+0 0  9991
2 45026   0.0531 105.7770 0003408 339.2323 307.4766  1.00269386 23424
EUTELSAT KONNECT        
1 45027U 20005B   26160.12939094  .00000067  00000+0  00000+0 0  9998
2 45027   0.0706  99.2729 0001450 119.5425  92.5263  1.00273234 24250
JCSAT-17                
1 45245U 20013A   26162.36494586 -.00000305  00000+0  00000+0 0  9995
2 45245   5.3924 356.8069 0002466  81.5528  88.7524  1.00272821 23179
GEO-KOMPSAT-2B          
1 45246U 20013B   26160.79502436 -.00000326  00000+0  00000+0 0  9998
2 45246   0.0421 156.7250 0000357 146.7417   9.1642  1.00269964 23207
BEIDOU-3 G2             
1 45344U 20017A   26162.63907954 -.00000126  00000+0  00000+0 0  9998
2 45344   2.8520  47.2486 0002324  31.4900 131.3790  1.00272993 23202
AEHF-6 (USA 298)        
1 45465U 20022B   26162.57903852 -.00000281  00000+0  00000+0 0  9996
2 45465   2.5613 301.0641 0043177  17.1799 287.8899  1.00273760 22959
BEIDOU-3 G3             
1 45807U 20040A   26162.65926987 -.00000338  00000+0  00000+0 0  9992
2 45807   2.4324  67.4380 0002618 337.6843 202.7876  1.00269904 22018
APSTAR-6D               
1 45863U 20045A   26160.68998834 -.00000301  00000+0  00000+0 0  9990
2 45863   0.0502 104.3507 0002103 344.4035 191.7177  1.00268962 21789
KOREASAT 116            
1 45920U 20048A   26162.57489741 -.00000345  00000+0  00000+0 0  9997
2 45920   0.0096 319.5906 0000807 117.4374 146.0788  1.00271063 21582
EXPRESS 103             
1 45985U 20053A   26162.68411631 -.00000264  00000+0  00000+0 0  9999
2 45985   0.0129 278.3767 0000363 127.5408 196.9068  1.00271788 21594
EXPRESS 80              
1 45986U 20053B   26162.05729582  .00000000  00000+0  00000+0 0  9995
2 45986   0.0255 314.7601 0002441 201.8590 203.3920  1.00270979 21573
BSAT-4B                 
1 46112U 20056A   26160.50619905 -.00000333  00000+0  00000+0 0  9995
2 46112   0.0407 168.6637 0003794 305.2086  76.0750  1.00273071 21314
MEV-2                   
1 46113U 20056B   26162.26652380  .00000006  00000+0  00000+0 0  9991
2 46113   0.0126 323.5521 0000286 194.0839 196.9216  1.00272584 80446
GALAXY 30 (G-30)        
1 46114U 20056C   26162.40739412  .00000053  00000+0  00000+0 0  9992
2 46114   0.0017 357.0112 0001944  77.5372 206.8848  1.00273404 21239
GAOFEN-13 01            
1 46610U 20071A   26162.67670782 -.00000346  00000+0  00000+0 0  9999
2 46610   0.5063  84.9078 0041313 123.4947  53.4355  1.00273633 20867
TIANTONG-1 2            
1 46916U 20082A   26162.64791957 -.00000339  00000+0  00000+0 0  9997
2 46916   0.7981 326.6574 0001086  95.6245 195.9022  1.00272421 20595
LUCAS (JDRS-1)          
1 47202U 20089A   26162.56976836 -.00000219  00000+0  00000+0 0  9992
2 47202   0.0192 287.0044 0002162 143.6655 125.1643  1.00272096 20365
SXM-7                   
1 47240U 20096A   26161.89339189 -.00000188  00000+0  00000+0 0  9996
2 47240   0.0421 136.2639 0004032 351.8138   7.6481  1.00270630  7387
CMS-01                  
1 47256U 20099A   26162.64611926 -.00000148  00000+0  00000+0 0  9998
2 47256   0.0835  97.4099 0003705 180.4045 297.7719  1.00271603 20146
TURKSAT 5A              
1 47306U 21001A   26161.06091502  .00000172  00000+0  00000+0 0  9991
2 47306   0.0226  63.8245 0000130 109.3639 138.1054  1.00271427 19898
TIANTONG-1 3            
1 47321U 21003A   26162.63933954 -.00000140  00000+0  00000+0 0  9996
2 47321   1.7606 338.9334 0003306 108.7376 124.0254  1.00271674 19901
TJS-6                   
1 47613U 21010A   26161.80304674  .00000062  00000+0  00000+0 0  9999
2 47613   0.2680 264.4395 0003644 214.2589 248.1189  1.00277302 19746
SBIRS GEO-5 (USA 315)   
1 48618U 21042A   26162.49917873 -.00000255  00000+0  00000+0 0  9992
2 48618   5.1114 329.0770 0001397 122.1613  82.1263  1.00271347 18719
FENGYUN 4B              
1 48808U 21047A   26162.57255741 -.00000311  00000+0  00000+0 0  9999
2 48808   0.1386  76.7708 0005098 285.4743 208.2711  1.00262382 18518
SXM-8                   
1 48838U 21049A   26162.53501730 -.00000188  00000+0  00000+0 0  9994
2 48838   0.0200  15.3455 0004762  17.1052 334.8965  1.00270287 18524
TIANLIAN 1-05           
1 49011U 21063A   26161.72960359  .00000125  00000+0  00000+0 0  9990
2 49011   1.5763  80.7547 0000733 317.9188 139.8896  1.00271048 18017
